STARLINK-3911           
1 52565U 22051AJ  26199.86635227 -.00000507  00000+0 -13798-4 0  9994
2 52565  53.1594 249.9632 0000937  77.5694 282.5403 15.08831982231380
STARLINK-3938           
1 52566U 22051AK  26199.91668981  .00022775  00000+0  97851-3 0  9994
2 52566  53.1596 263.5598 0002042  50.6624 329.2263 15.22605328  5695
STARLINK-3929           
1 52567U 22051AL  26199.56656227  .00003261  00000+0  10436-3 0  9999
2 52567  53.1579 246.8178 0001172  54.3451 305.7660 15.35399607231401
STARLINK-3930           
1 52568U 22051AM  26199.29009465  .00000648  00000+0  30330-4 0  9998
2 52568  53.1601 248.0509 0001313  80.8054 279.3098 15.34388595231369
STARLINK-3927           
1 52569U 22051AN  26199.53588868  .00000226  00000+0  19055-4 0  9998
2 52569  53.1595 248.0750 0001537  84.3933 275.7244 15.31700167231388
STARLINK-3901           
1 52574U 22051AQ  26199.54340338  .00001669  00000+0  58693-4 0  9996
2 52574  53.1595 246.7498 0001032  62.2503 297.8604 15.35428809231408
STARLINK-3932           
1 52576U 22051AS  26199.56922875 -.00000754  00000+0 -29321-4 0  9994
2 52576  53.1584 251.2941 0000912  71.2335 288.8755 15.08833366231349
STARLINK-3836           
1 52577U 22051AT  26199.89213644  .00002368  00000+0  81242-4 0  9999
2 52577  53.1604 260.7159 0001417  69.8364 290.2791 15.34381686231243
STARLINK-3833           
1 52578U 22051AU  26199.57601196  .00000173  00000+0  15856-4 0  9998
2 52578  53.1614 262.9619 0001331  85.0424 275.0731 15.35397557231185
STARLINK-3893           
1 52579U 22051AV  26199.91668981  .00629207  00000+0  63686-2 0  9999
2 52579  53.2170 252.9949 0000565  91.9067 139.6155 15.62716587  5841
STARLINK-3919           
1 52580U 22051AW  26199.22008620 -.00000134  00000+0  96781-5 0  9991
2 52580  53.1600 267.8770 0001232  95.8488 264.2643 15.08830310231084
STARLINK-3915           
1 52581U 22051AX  26199.82954801 -.00000312  00000+0 -15060-5 0  9999
2 52581  53.1588 250.1225 0001019  74.7747 285.3357 15.08832600231380
STARLINK-3895           
1 52583U 22051AZ  26199.56090920 -.00000627  00000+0 -21324-4 0  9993
2 52583  53.1588 251.3328 0000828  77.0394 283.0690 15.08831922231347
STARLINK-3922           
1 52584U 22051BA  26199.83322897 -.00000449  00000+0 -10131-4 0  9991
2 52584  53.1582 250.1077 0001103  68.1788 291.9320 15.08830399231384
STARLINK-3906           
1 52585U 22051BB  26199.15242321  .00000154  00000+0  27750-4 0  9996
2 52585  53.1583 253.1286 0001100  75.7768 284.3345 15.08836650231288
STARLINK-3910           
1 52586U 22051BC  26199.55722760 -.00000226  00000+0  38624-5 0  9995
2 52586  53.1589 251.3505 0000885  80.7807 279.3284 15.08833591231342
STARLINK-3867           
1 52587U 22051BD  26199.84810392 -.00000183  00000+0  58533-5 0  9990
2 52587  53.1597 246.1981 0001230  75.2527 284.8611 15.31697070231447
STARLINK-3917           
1 52588U 22051BE  26198.42010714  .00000045  00000+0  20924-4 0  9992
2 52588  53.1582 256.4594 0001189  90.1298 269.9829 15.08833615231176
STARLINK-4019           
1 52598U 22052A   26199.91668981  .00040370  00000+0  16649-2 0  9996
2 52598  53.1605  53.4146 0001201  51.2064 278.0851 15.23698784  5803
STARLINK-4024           
1 52599U 22052B   26199.87762282  .00000050  00000+0  13382-4 0  9995
2 52599  53.1610  45.5487 0001177  86.7550 273.3586 15.31702110231526
STARLINK-4026           
1 52600U 22052C   26199.82731842 -.00000454  00000+0 -34079-5 0  9998
2 52600  53.1617  48.1733 0000945  77.2591 282.8515 15.29350343231487
STARLINK-4027           
1 52601U 22052D   26199.82219191 -.00000094  00000+0  12213-4 0  9991
2 52601  53.1603  50.1590 0001397  96.5220 263.5931 15.08826958231454
STARLINK-4012           
1 52602U 22052E   26199.88475079 -.00000320  00000+0 -19899-5 0  9998
2 52602  53.1612  49.8792 0001422  90.3744 269.7410 15.08830015231466
STARLINK-4016           
1 52603U 22052F   26199.80797224 -.00001414  00000+0 -33810-4 0  9993
2 52603  53.1613  45.3647 0001084  93.1204 266.9922 15.31691258231528
STARLINK-4013           
1 52604U 22052G   26199.87738869 -.00000043  00000+0  15403-4 0  9995
2 52604  53.1598  49.9097 0001531  88.2028 271.9139 15.08832742230665
STARLINK-4000           
1 52605U 22052H   26199.91668981  .00080107  00000+0  23640-2 0  9996
2 52605  53.1609  52.7642 0000839 106.2580 216.8047 15.34305030  5795
STARLINK-3928           
1 52606U 22052J   26199.87300511  .00062137  00000+0  38293-2 0  9997
2 52606  53.1601  49.9222 0001347  92.6687 267.4459 15.09396203230660
STARLINK-3947           
1 52607U 22052K   26199.91668981  .00011784  00000+0  42014-3 0  9990
2 52607  53.1613  53.7227 0001189  89.2173 139.3625 15.29348674  5807
STARLINK-3979           
1 52608U 22052L   26199.80010778  .00000648  00000+0  58821-4 0  9995
2 52608  53.1605  50.2583 0001342  87.6210 272.4935 15.08835764230655
STARLINK-3997           
1 52609U 22052M   26199.85530309  .00000292  00000+0  36424-4 0  9998
2 52609  53.1598  49.9608 0001454  94.3753 265.7404 15.08835098230668
