OBJECT_NAME,OBJECT_ID,EPOCH,MEAN_MOTION,ECCENTRICITY,INCLINATION,RA_OF_ASC_NODE,ARG_OF_PERICENTER,MEAN_ANOMALY,EPHEMERIS_TYPE,CLASSIFICATION_TYPE,NORAD_CAT_ID,ELEMENT_SET_NO,REV_AT_EPOCH,BSTAR,MEAN_MOTION_DOT,MEAN_MOTION_DDOT
STARLINK-3911,2022-051AJ,2026-07-18T20:47:32.836128,15.08831982,.00009372,53.1594,249.9632,77.5694,282.5403,0,U,52565,999,23138,-.13797939E-4,-.507E-5,0
STARLINK-3938,2022-051AK,2026-07-18T22:00:01.999584,15.22605328,.00020428,53.1596,263.5598,50.6624,329.2263,0,U,52566,999,569,.97850942E-3,.22775E-3,0
STARLINK-3929,2022-051AL,2026-07-18T13:35:50.980128,15.35399607,.0001172,53.1579,246.8178,54.3451,305.7660,0,U,52567,999,23140,.10436E-3,.3261E-4,0
STARLINK-3930,2022-051AM,2026-07-18T06:57:44.177760,15.34388595,.00013139,53.1601,248.0509,80.8054,279.3098,0,U,52568,999,23136,.30330336E-4,.648E-5,0
STARLINK-3927,2022-051AN,2026-07-18T12:51:40.781952,15.31700167,.0001537,53.1595,248.0750,84.3933,275.7244,0,U,52569,999,23138,.19055E-4,.226E-5,0
STARLINK-3901,2022-051AQ,2026-07-18T13:02:30.052032,15.35428809,.0001032,53.1595,246.7498,62.2503,297.8604,0,U,52574,999,23140,.58693E-4,.1669E-4,0
STARLINK-3932,2022-051AS,2026-07-18T13:39:41.364000,15.08833366,.0000912,53.1584,251.2941,71.2335,288.8755,0,U,52576,999,23134,-.29321E-4,-.754E-5,0
STARLINK-3836,2022-051AT,2026-07-18T21:24:40.588416,15.34381686,.00014179,53.1604,260.7159,69.8364,290.2791,0,U,52577,999,23124,.81241931E-4,.2368E-4,0
STARLINK-3833,2022-051AU,2026-07-18T13:49:27.433344,15.35397557,.0001331,53.1614,262.9619,85.0424,275.0731,0,U,52578,999,23118,.15856E-4,.173E-5,0
STARLINK-3893,2022-051AV,2026-07-18T22:00:01.999584,15.62716587,.00005657,53.2170,252.9949,91.9067,139.6155,0,U,52579,999,584,.63685976E-2,.629207E-2,0
STARLINK-3919,2022-051AW,2026-07-18T05:16:55.447680,15.08830310,.00012322,53.1600,267.8770,95.8488,264.2643,0,U,52580,999,23108,.9678141E-5,-.134E-5,0
STARLINK-3915,2022-051AX,2026-07-18T19:54:32.948064,15.08832600,.00010195,53.1588,250.1225,74.7747,285.3357,0,U,52581,999,23138,-.1506014E-5,-.312E-5,0
STARLINK-3895,2022-051AZ,2026-07-18T13:27:42.554880,15.08831922,.0000828,53.1588,251.3328,77.0394,283.0690,0,U,52583,999,23134,-.21324E-4,-.627E-5,0
STARLINK-3922,2022-051BA,2026-07-18T19:59:50.983008,15.08830399,.00011031,53.1582,250.1077,68.1788,291.9320,0,U,52584,999,23138,-.10131476E-4,-.449E-5,0
STARLINK-3906,2022-051BB,2026-07-18T03:39:29.365344,15.08836650,.00011006,53.1583,253.1286,75.7768,284.3345,0,U,52585,999,23128,.27750406E-4,.154E-5,0
STARLINK-3910,2022-051BC,2026-07-18T13:22:24.464640,15.08833591,.0000885,53.1589,251.3505,80.7807,279.3284,0,U,52586,999,23134,.38624E-5,-.226E-5,0
STARLINK-3867,2022-051BD,2026-07-18T20:21:16.178688,15.31697070,.00012309,53.1597,246.1981,75.2527,284.8611,0,U,52587,999,23144,.5853296E-5,-.183E-5,0
STARLINK-3917,2022-051BE,2026-07-17T10:04:57.256896,15.08833615,.0001189,53.1582,256.4594,90.1298,269.9829,0,U,52588,999,23117,.20924E-4,.45E-6,0
STARLINK-4019,2022-052A,2026-07-18T22:00:01.999584,15.23698784,.00012012,53.1605,53.4146,51.2064,278.0851,0,U,52598,999,580,.16648505E-2,.4037E-3,0
STARLINK-4024,2022-052B,2026-07-18T21:03:46.611648,15.31702110,.00011778,53.1610,45.5487,86.7550,273.3586,0,U,52599,999,23152,.13381508E-4,.5E-6,0
STARLINK-4026,2022-052C,2026-07-18T19:51:20.311488,15.29350343,.00009455,53.1617,48.1733,77.2591,282.8515,0,U,52600,999,23148,-.3407891E-5,-.454E-5,0
STARLINK-4027,2022-052D,2026-07-18T19:43:57.381024,15.08826958,.00013978,53.1603,50.1590,96.5220,263.5931,0,U,52601,999,23145,.12213193E-4,-.94E-6,0
STARLINK-4012,2022-052E,2026-07-18T21:14:02.468256,15.08830015,.00014221,53.1612,49.8792,90.3744,269.7410,0,U,52602,999,23146,-.1989942E-5,-.32E-5,0
STARLINK-4016,2022-052F,2026-07-18T19:23:28.801536,15.31691258,.00010848,53.1613,45.3647,93.1204,266.9922,0,U,52603,999,23152,-.3380989E-4,-.1414E-4,0
STARLINK-4013,2022-052G,2026-07-18T21:03:26.382816,15.08832742,.00015312,53.1598,49.9097,88.2028,271.9139,0,U,52604,999,23066,.15402859E-4,-.43E-6,0
STARLINK-4000,2022-052H,2026-07-18T22:00:01.999584,15.34305030,.00008398,53.1609,52.7642,106.2580,216.8047,0,U,52605,999,579,.23639653E-2,.80107E-3,0
STARLINK-3928,2022-052J,2026-07-18T20:57:07.641504,15.09396203,.00013479,53.1601,49.9222,92.6687,267.4459,0,U,52606,999,23066,.38292985E-2,.62137E-3,0
STARLINK-3947,2022-052K,2026-07-18T22:00:01.999584,15.29348674,.00011897,53.1613,53.7227,89.2173,139.3625,0,U,52607,999,580,.42014113E-3,.11784E-3,0
STARLINK-3979,2022-052L,2026-07-18T19:12:09.312192,15.08835764,.00013425,53.1605,50.2583,87.6210,272.4935,0,U,52608,999,23065,.58821114E-4,.648E-5,0
STARLINK-3997,2022-052M,2026-07-18T20:31:38.186976,15.08835098,.00014544,53.1598,49.9608,94.3753,265.7404,0,U,52609,999,23066,.36424054E-4,.292E-5,0
